CTC2_L_00393016-03
1 10062U 26890RX  26075.70045139  .00000000  00000+0  00000-0 0  9992
2 10062 100.0000 180.0000 0000000   0.0000   0.0000 12.90384021    12
CTC2_L_00393016-04
1 10063U 25392EH  26075.70045139  .00000000  00000+0  00000-0 0  9999
2 10063 100.0000 180.0000 0000000   0.0000  90.0000 12.90384021    12
CTC2_L_00393017-01
1 10064U 26299QY  26075.70045139  .00000000  00000+0  00000-0 0  9997
2 10064 100.0000 192.0000 0000000   0.0000 192.0000 12.90384021    19
CTC2_L_00393017-02
1 10065U 26036HX  26075.70045139  .00000000  00000+0  00000-0 0  9997
2 10065 100.0000 192.0000 0000000   0.0000 282.0000 12.90384021    10
CTC2_L_00393017-03
1 10066U 23854QT  26075.70045139  .00000000  00000+0  00000-0 0  9993
2 10066 100.0000 192.0000 0000000   0.0000  12.0000 12.90384021    12
CTC2_L_00393017-04
1 10067U 26210U   26075.70045139  .00000000  00000+0  00000-0 0  9993
2 10067 100.0000 192.0000 0000000   0.0000 102.0000 12.90384021    13
CTC2_L_00393018-01
1 10068U 24818EV  26075.70045139  .00000000  00000+0  00000-0 0  9996
2 10068 100.0000 204.0000 0000000   0.0000 204.0000 12.90384021    11
CTC2_L_00393018-02
1 10069U 23302KG  26075.70045139  .00000000  00000+0  00000-0 0  9994
2 10069 100.0000 204.0000 0000000   0.0000 294.0000 12.90384021    11
CTC2_L_00393018-03
1 10070U 22441KV  26075.70045139  .00000000  00000+0  00000-0 0  9999
2 10070 100.0000 204.0000 0000000   0.0000  24.0000 12.90384021    14
CTC2_L_00393018-04
1 10071U 26324XK  26075.70045139  .00000000  00000+0  00000-0 0  9994
2 10071 100.0000 204.0000 0000000   0.0000 114.0000 12.90384021    15
CTC2_L_00393019-01
1 10072U 26763LW  26075.70045139  .00000000  00000+0  00000-0 0  9992
2 10072 100.0000 216.0000 0000000   0.0000 216.0000 12.90384021    12
CTC2_L_00393019-02
1 10073U 22713BV  26075.70045139  .00000000  00000+0  00000-0 0  9994
2 10073 100.0000 216.0000 0000000   0.0000 306.0000 12.90384021    13
CTC2_L_00393019-03
1 10074U 23440LM  26075.70045139  .00000000  00000+0  00000-0 0  9993
2 10074 100.0000 216.0000 0000000   0.0000  36.0000 12.90384021    14
CTC2_L_00393019-04
1 10075U 22797YW  26075.70045139  .00000000  00000+0  00000-0 0  9998
2 10075 100.0000 216.0000 0000000   0.0000 126.0000 12.90384021    15
CTC2_L_00393020-01
1 10076U 23089KF  26075.70045139  .00000000  00000+0  00000-0 0  9994
2 10076 100.0000 228.0000 0000000   0.0000 228.0000 12.90384021    12
CTC2_L_00393020-02
1 10077U 22795VU  26075.70045139  .00000000  00000+0  00000-0 0  9998
2 10077 100.0000 228.0000 0000000   0.0000 318.0000 12.90384021    13
CTC2_L_00393020-03
1 10078U 22365BC  26075.70045139  .00000000  00000+0  00000-0 0  9992
2 10078 100.0000 228.0000 0000000   0.0000  48.0000 12.90384021    14
CTC2_L_00393020-04
1 10079U 26440WE  26075.70045139  .00000000  00000+0  00000-0 0  9991
2 10079 100.0000 228.0000 0000000   0.0000 138.0000 12.90384021    15
CTC2_L_00393021-01
1 10080U 26247BD  26075.70045139  .00000000  00000+0  00000-0 0  9998
2 10080 100.0000 240.0000 0000000   0.0000 240.0000 12.90384021    15
CTC2_L_00393021-02
1 10081U 24828LG  26075.70045139  .00000000  00000+0  00000-0 0  9992
2 10081 100.0000 240.0000 0000000   0.0000 330.0000 12.90384021    16
CTC2_L_00393021-03
1 10082U 25691ZS  26075.70045139  .00000000  00000+0  00000-0 0  9992
2 10082 100.0000 240.0000 0000000   0.0000  60.0000 12.90384021    17
CTC2_L_00393021-04
1 10083U 22922EE  26075.70045139  .00000000  00000+0  00000-0 0  9997
2 10083 100.0000 240.0000 0000000   0.0000 150.0000 12.90384021    18
CTC2_L_00393022-01
1 10084U 22790ZB  26075.70045139  .00000000  00000+0  00000-0 0  9991
2 10084 100.0000 252.0000 0000000   0.0000 252.0000 12.90384021    15
CTC2_L_00393022-02
1 10085U 26580PV  26075.70045139  .00000000  00000+0  00000-0 0  9993
2 10085 100.0000 252.0000 0000000   0.0000 342.0000 12.90384021    16
CTC2_L_00393022-03
1 10086U 22310QP  26075.70045139  .00000000  00000+0  00000-0 0  9991
2 10086 100.0000 252.0000 0000000   0.0000  72.0000 12.90384021    17
CTC2_L_00393022-04
1 10087U 26608MD  26075.70045139  .00000000  00000+0  00000-0 0  9996
2 10087 100.0000 252.0000 0000000   0.0000 162.0000 12.90384021    18
CTC2_L_00393023-01
1 10088U 22238VC  26075.70045139  .00000000  00000+0  00000-0 0  9992
2 10088 100.0000 264.0000 0000000   0.0000 264.0000 12.90384021    15
CTC2_L_00393023-02
1 10089U 24983EF  26075.70045139  .00000000  00000+0  00000-0 0  9992
2 10089 100.0000 264.0000 0000000   0.0000 354.0000 12.90384021    16
CTC2_L_00393023-03
1 10090U 26601ND  26075.70045139  .00000000  00000+0  00000-0 0  9993
2 10090 100.0000 264.0000 0000000   0.0000  84.0000 12.90384021    18
CTC2_L_00393023-04
1 10091U 26050EM  26075.70045139  .00000000  00000+0  00000-0 0  9992
2 10091 100.0000 264.0000 0000000   0.0000 174.0000 12.90384021    19
CTC2_L_00393024-01
1 10092U 23642LR  26075.70045139  .00000000  00000+0  00000-0 0  9997
2 10092 100.0000 276.0000 0000000   0.0000 276.0000 12.90384021    16
CTC2_L_00393024-02
1 10093U 25690CU  26075.70045139  .00000000  00000+0  00000-0 0  9993
2 10093 100.0000 276.0000 0000000   0.0000   6.0000 12.90384021    18
CTC2_L_00393024-03
1 10094U 26349SU  26075.70045139  .00000000  00000+0  00000-0 0  9996
2 10094 100.0000 276.0000 0000000   0.0000  96.0000 12.90384021    18
CTC2_L_00393024-04
1 10095U 26769LS  26075.70045139  .00000000  00000+0  00000-0 0  9993
2 10095 100.0000 276.0000 0000000   0.0000 186.0000 12.90384021    19
CTC2_L_00393025-01
1 10096U 26100DB  26075.70045139  .00000000  00000+0  00000-0 0  9993
2 10096 100.0000 288.0000 0000000   0.0000 288.0000 12.90384021    16
CTC2_L_00393025-02
1 10097U 24073JJ  26075.70045139  .00000000  00000+0  00000-0 0  9991
2 10097 100.0000 288.0000 0000000   0.0000  18.0000 12.90384021    18
CTC2_L_00393025-03
1 10098U 24206FY  26075.70045139  .00000000  00000+0  00000-0 0  9990
2 10098 100.0000 288.0000 0000000   0.0000 108.0000 12.90384021    19
CTC2_L_00393025-04
1 10099U 24994OV  26075.70045139  .00000000  00000+0  00000-0 0  9995
2 10099 100.0000 288.0000 0000000   0.0000 198.0000 12.90384021    19
CTC2_L_00393026-01
1 10100U 24327TC  26075.70045139  .00000000  00000+0  00000-0 0  9998
2 10100 100.0000 300.0000 0000000   0.0000 300.0000 12.90384021    12
CTC2_L_00393026-02
1 10101U 22833GC  26075.70045139  .00000000  00000+0  00000-0 0  9999
2 10101 100.0000 300.0000 0000000   0.0000  30.0000 12.90384021    13
CTC2_L_00393026-03
1 10102U 25488YK  26075.70045139  .00000000  00000+0  00000-0 0  9999
2 10102 100.0000 300.0000 0000000   0.0000 120.0000 12.90384021    14
CTC2_L_00393026-04
1 10103U 22207AT  26075.70045139  .00000000  00000+0  00000-0 0  9996
2 10103 100.0000 300.0000 0000000   0.0000 210.0000 12.90384021    15
CTC2_L_00393027-01
1 10104U 24771EI  26075.70045139  .00000000  00000+0  00000-0 0  9995
2 10104 100.0000 312.0000 0000000   0.0000 312.0000 12.90384021    12
CTC2_L_00393027-02
1 10105U 23743IF  26075.70045139  .00000000  00000+0  00000-0 0  9994
2 10105 100.0000 312.0000 0000000   0.0000  42.0000 12.90384021    13
CTC2_L_00393027-03
1 10106U 25080NM  26075.70045139  .00000000  00000+0  00000-0 0  9991
2 10106 100.0000 312.0000 0000000   0.0000 132.0000 12.90384021    14
CTC2_L_00393027-04
1 10107U 26164FX  26075.70045139  .00000000  00000+0  00000-0 0  9996
2 10107 100.0000 312.0000 0000000   0.0000 222.0000 12.90384021    15
CTC2_L_00393028-01
1 10108U 26612TQ  26075.70045139  .00000000  00000+0  00000-0 0  9995
2 10108 100.0000 324.0000 0000000   0.0000 324.0000 12.90384021    12
CTC2_L_00393028-02
1 10109U 22465QA  26075.70045139  .00000000  00000+0  00000-0 0  9998
2 10109 100.0000 324.0000 0000000   0.0000  54.0000 12.90384021    13
CTC2_L_00393028-03
1 10110U 22031SD  26075.70045139  .00000000  00000+0  00000-0 0  9999
2 10110 100.0000 324.0000 0000000   0.0000 144.0000 12.90384021    15
CTC2_L_00393028-04
1 10111U 25693JH  26075.70045139  .00000000  00000+0  00000-0 0  9997
2 10111 100.0000 324.0000 0000000   0.0000 234.0000 12.90384021    16
CTC2_L_00393029-01
1 10112U 23183DV  26075.70045139  .00000000  00000+0  00000-0 0  9990
2 10112 100.0000 336.0000 0000000   0.0000 336.0000 12.90384021    13
CTC2_L_00393029-02
1 10113U 22472FY  26075.70045139  .00000000  00000+0  00000-0 0  9991
2 10113 100.0000 336.0000 0000000   0.0000  66.0000 12.90384021    14
CTC2_L_00393029-03
1 10114U 25498QK  26075.70045139  .00000000  00000+0  00000-0 0  9993
2 10114 100.0000 336.0000 0000000   0.0000 156.0000 12.90384021    15
CTC2_L_00393029-04
1 10115U 22339UJ  26075.70045139  .00000000  00000+0  00000-0 0  9995
2 10115 100.0000 336.0000 0000000   0.0000 246.0000 12.90384021    16
CTC2_L_00393030-01
1 10116U 23075ZX  26075.70045139  .00000000  00000+0  00000-0 0  9994
2 10116 100.0000 348.0000 0000000   0.0000 348.0000 12.90384021    13
CTC2_L_00393030-02
1 10117U 26720PC  26075.70045139  .00000000  00000+0  00000-0 0  9995
2 10117 100.0000 348.0000 0000000   0.0000  78.0000 12.90384021    14
CTC2_L_00393030-03
1 10118U 23121VV  26075.70045139  .00000000  00000+0  00000-0 0  9998
2 10118 100.0000 348.0000 0000000   0.0000 168.0000 12.90384021    15
CTC2_L_00393030-04
1 10119U 24289PI  26075.70045139  .00000000  00000+0  00000-0 0  9995
2 10119 100.0000 348.0000 0000000   0.0000 258.0000 12.90384021    16
